{
  "type": "FeatureCollection",
  "features": [
    {
      "type": "Feature",
      "properties": {
        "norad_id": 34784,
        "name": "COSMOS 2251 DEB",
        "group": "cosmos-2251-debris",
        "lat": 70.375057737295,
        "lon": 76.45998943880636,
        "alt_km": 649.8652273074413,
        "timestamp": "2025-12-20T05:41:50.426477+00:00",
        "meta_object_name": "COSMOS 2251 DEB",
        "meta_object_id": "1993-036AAM",
        "meta_epoch": "2025-12-19T22:39:42.146784",
        "meta_mean_motion": 14.60808995,
        "meta_eccentricity": 0.00492224,
        "meta_inclination": 74.0073,
        "meta_ra_of_asc_node": 310.5647,
        "meta_arg_of_pericenter": 117.7322,
        "meta_mean_anomaly": 242.885,
        "meta_ephemeris_type": 0,
        "meta_classification_type": "U",
        "meta_norad_cat_id": 34784,
        "meta_element_set_no": 999,
        "meta_rev_at_epoch": 88640,
        "meta_bstar": 0.00031794571,
        "meta_mean_motion_dot": 1.549e-05,
        "meta_mean_motion_ddot": 0,
        "tle_line1": "1 34784U 93036AAM 25353.94423781  .00001549  00000+0  31795-3 0  9999",
        "tle_line2": "2 34784  74.0073 310.5647 0049222 117.7322 242.8850 14.60808995886402"
      },
      "geometry": {
        "type": "Point",
        "coordinates": [
          76.45998943880636,
          70.375057737295
        ]
      }
    },
    {
      "type": "Feature",
      "properties": {
        "norad_id": 34790,
        "name": "COSMOS 2251 DEB",
        "group": "cosmos-2251-debris",
        "lat": -25.24497053752874,
        "lon": -137.53997836398082,
        "alt_km": 762.0898380781546,
        "timestamp": "2025-12-20T05:41:50.426488+00:00",
        "meta_object_name": "COSMOS 2251 DEB",
        "meta_object_id": "1993-036AAT",
        "meta_epoch": "2025-12-19T10:27:01.425024",
        "meta_mean_motion": 14.24654608,
        "meta_eccentricity": 0.0100536,
        "meta_inclination": 74.0541,
        "meta_ra_of_asc_node": 231.6511,
        "meta_arg_of_pericenter": 291.9423,
        "meta_mean_anomaly": 249.6439,
        "meta_ephemeris_type": 0,
        "meta_classification_type": "U",
        "meta_norad_cat_id": 34790,
        "meta_element_set_no": 999,
        "meta_rev_at_epoch": 86668,
        "meta_bstar": 0.00046846,
        "meta_mean_motion_dot": 1.122e-05,
        "meta_mean_motion_ddot": 0,
        "tle_line1": "1 34790U 93036AAT 25353.43543316  .00001122  00000+0  46846-3 0  9997",
        "tle_line2": "2 34790  74.0541 231.6511 0100536 291.9423 249.6439 14.24654608866681"
      },
      "geometry": {
        "type": "Point",
        "coordinates": [
          -137.53997836398082,
          -25.24497053752874
        ]
      }
    },
    {
      "type": "Feature",
      "properties": {
        "norad_id": 34792,
        "name": "COSMOS 2251 DEB",
        "group": "cosmos-2251-debris",
        "lat": 44.06819602383141,
        "lon": 171.58578103064872,
        "alt_km": 710.0912386548316,
        "timestamp": "2025-12-20T05:41:50.426499+00:00",
        "meta_object_name": "COSMOS 2251 DEB",
        "meta_object_id": "1993-036AAV",
        "meta_epoch": "2025-12-19T21:57:35.244864",
        "meta_mean_motion": 14.56009561,
        "meta_eccentricity": 0.00124358,
        "meta_inclination": 74.0171,
        "meta_ra_of_asc_node": 156.0902,
        "meta_arg_of_pericenter": 250.5909,
        "meta_mean_anomaly": 266.5704,
        "meta_ephemeris_type": 0,
        "meta_classification_type": "U",
        "meta_norad_cat_id": 34792,
        "meta_element_set_no": 999,
        "meta_rev_at_epoch": 87754,
        "meta_bstar": 0.00067786208,
        "meta_mean_motion_dot": 2.959e-05,
        "meta_mean_motion_ddot": 0,
        "tle_line1": "1 34792U 93036AAV 25353.91499126  .00002959  00000+0  67786-3 0  9996",
        "tle_line2": "2 34792  74.0171 156.0902 0012435 250.5909 266.5704 14.56009561877543"
      },
      "geometry": {
        "type": "Point",
        "coordinates": [
          171.58578103064872,
          44.06819602383141
        ]
      }
    },
    {
      "type": "Feature",
      "properties": {
        "norad_id": 34793,
        "name": "COSMOS 2251 DEB",
        "group": "cosmos-2251-debris",
        "lat": 70.06320575307655,
        "lon": -71.21064227759138,
        "alt_km": 732.1147416155682,
        "timestamp": "2025-12-20T05:41:50.426509+00:00",
        "meta_object_name": "COSMOS 2251 DEB",
        "meta_object_id": "1993-036AAW",
        "meta_epoch": "2025-12-19T19:52:48.723744",
        "meta_mean_motion": 14.38655251,
        "meta_eccentricity": 0.00506013,
        "meta_inclination": 74.0021,
        "meta_ra_of_asc_node": 237.2712,
        "meta_arg_of_pericenter": 29.5633,
        "meta_mean_anomaly": 90.3069,
        "meta_ephemeris_type": 0,
        "meta_classification_type": "U",
        "meta_norad_cat_id": 34793,
        "meta_element_set_no": 999,
        "meta_rev_at_epoch": 87432,
        "meta_bstar": 0.00017265449,
        "meta_mean_motion_dot": 5.11e-06,
        "meta_mean_motion_ddot": 0,
        "tle_line1": "1 34793U 93036AAW 25353.82834171  .00000511  00000+0  17265-3 0  9999",
        "tle_line2": "2 34793  74.0021 237.2712 0050601  29.5633  90.3069 14.38655251874327"
      },
      "geometry": {
        "type": "Point",
        "coordinates": [
          -71.21064227759138,
          70.06320575307655
        ]
      }
    },
    {
      "type": "Feature",
      "properties": {
        "norad_id": 34796,
        "name": "COSMOS 2251 DEB",
        "group": "cosmos-2251-debris",
        "lat": 72.77223744412404,
        "lon": -90.25876153721381,
        "alt_km": 777.3969108913434,
        "timestamp": "2025-12-20T05:41:50.426520+00:00",
        "meta_object_name": "COSMOS 2251 DEB",
        "meta_object_id": "1993-036AAZ",
        "meta_epoch": "2025-12-19T08:34:23.356992",
        "meta_mean_motion": 14.48719322,
        "meta_eccentricity": 0.0100258,
        "meta_inclination": 74.0291,
        "meta_ra_of_asc_node": 203.9373,
        "meta_arg_of_pericenter": 304.5968,
        "meta_mean_anomaly": 229.5737,
        "meta_ephemeris_type": 0,
        "meta_classification_type": "U",
        "meta_norad_cat_id": 34796,
        "meta_element_set_no": 999,
        "meta_rev_at_epoch": 88123,
        "meta_bstar": 0.00040539,
        "meta_mean_motion_dot": 1.598e-05,
        "meta_mean_motion_ddot": 0,
        "tle_line1": "1 34796U 93036AAZ 25353.35721478  .00001598  00000+0  40539-3 0  9991",
        "tle_line2": "2 34796  74.0291 203.9373 0100258 304.5968 229.5737 14.48719322881230"
      },
      "geometry": {
        "type": "Point",
        "coordinates": [
          -90.25876153721381,
          72.77223744412404
        ]
      }
    },
    {
      "type": "Feature",
      "properties": {
        "norad_id": 34797,
        "name": "COSMOS 2251 DEB",
        "group": "cosmos-2251-debris",
        "lat": 45.84028322298565,
        "lon": 103.22710353843513,
        "alt_km": 788.412078417563,
        "timestamp": "2025-12-20T05:41:50.426530+00:00",
        "meta_object_name": "COSMOS 2251 DEB",
        "meta_object_id": "1993-036ABA",
        "meta_epoch": "2025-12-18T13:32:08.695392",
        "meta_mean_motion": 14.42903821,
        "meta_eccentricity": 0.00713736,
        "meta_inclination": 73.9783,
        "meta_ra_of_asc_node": 89.1324,
        "meta_arg_of_pericenter": 201.7042,
        "meta_mean_anomaly": 158.1087,
        "meta_ephemeris_type": 0,
        "meta_classification_type": "U",
        "meta_norad_cat_id": 34797,
        "meta_element_set_no": 999,
        "meta_rev_at_epoch": 87499,
        "meta_bstar": 0.0016985088,
        "meta_mean_motion_dot": 5.83e-05,
        "meta_mean_motion_ddot": 0,
        "tle_line1": "1 34797U 93036ABA 25352.56398953  .00005830  00000+0  16985-2 0  9992",
        "tle_line2": "2 34797  73.9783  89.1324 0071373 201.7042 158.1087 14.42903821874994"
      },
      "geometry": {
        "type": "Point",
        "coordinates": [
          103.22710353843513,
          45.84028322298565
        ]
      }
    },
    {
      "type": "Feature",
      "properties": {
        "norad_id": 34814,
        "name": "COSMOS 2251 DEB",
        "group": "cosmos-2251-debris",
        "lat": -48.90764789845679,
        "lon": 150.87836747984045,
        "alt_km": 741.3066676393437,
        "timestamp": "2025-12-20T05:41:50.426540+00:00",
        "meta_object_name": "COSMOS 2251 DEB",
        "meta_object_id": "1993-036ABD",
        "meta_epoch": "2025-12-19T05:31:29.279136",
        "meta_mean_motion": 14.36920204,
        "meta_eccentricity": 0.0055801,
        "meta_inclination": 73.8955,
        "meta_ra_of_asc_node": 313.3995,
        "meta_arg_of_pericenter": 201.6283,
        "meta_mean_anomaly": 221.5963,
        "meta_ephemeris_type": 0,
        "meta_classification_type": "U",
        "meta_norad_cat_id": 34814,
        "meta_element_set_no": 999,
        "meta_rev_at_epoch": 87426,
        "meta_bstar": 0.00051306,
        "meta_mean_motion_dot": 1.519e-05,
        "meta_mean_motion_ddot": 0,
        "tle_line1": "1 34814U 93036ABD 25353.23019999  .00001519  00000+0  51306-3 0  9994",
        "tle_line2": "2 34814  73.8955 313.3995 0055801 201.6283 221.5963 14.36920204874269"
      },
      "geometry": {
        "type": "Point",
        "coordinates": [
          150.87836747984045,
          -48.90764789845679
        ]
      }
    }
  ]
}